GSAT0101 (PRN E11)      
1 37846U 11060A   23034.36663383 -.00000081  00000+0  00000+0 0  9994
2 37846  57.0681  15.0655 0003545 339.9398  20.0419  1.70476151 70151
GSAT0102 (PRN E12)      
1 37847U 11060B   23033.99210334 -.00000082  00000+0  00000+0 0  9998
2 37847  57.0685  15.0754 0005090 320.7491 216.1318  1.70475480 70155
GSAT0103 (PRN E19)      
1 38857U 12055A   23034.40551927 -.00000027  00000+0  00000+0 0  9997
2 38857  55.2085 135.3477 0003280 244.3791 115.5755  1.70473712 64046
GSAT0104 (PRN E20)      
1 38858U 12055B   23034.96186810 -.00000024  00000+0  00000+0 0  9991
2 38858  55.2089 135.3340 0001616 209.4400 150.5426  1.70473934 64051
GSAT0201 (PRN E18)      
1 40128U 14050A   23034.97845731 -.00000093  00000+0  00000+0 0  9992
2 40128  50.1142 323.0525 1612495 132.3950 242.4399  1.85519597 55510
GSAT0202 (PRN E14)      
1 40129U 14050B   23034.16063121 -.00000097  00000+0  00000+0 0  9993
2 40129  50.1370 322.1518 1609921 133.1769 241.4672  1.85520219 57667
GSAT0203 (PRN E26)      
1 40544U 15017A   23035.31918657 -.00000079  00000+0  00000+0 0  9999
2 40544  56.8638  15.0413 0004838 276.0937  83.8453  1.70475999 48257
GSAT0204 (PRN E22)      
1 40545U 15017B   23034.39929852 -.00000082  00000+0  00000+0 0  9990
2 40545  56.8675  15.0797 0004221 266.3866  93.5609  1.70475738 11288
GSAT0205 (PRN E24)      
1 40889U 15045A   23034.16755710  .00000057  00000+0  00000+0 0  9998
2 40889  55.4801 255.5879 0006485  30.2901 329.8251  1.70473311 46044
GSAT0206 (PRN E30)      
1 40890U 15045B   23034.97485960  .00000058  00000+0  00000+0 0  9997
2 40890  55.4790 255.5610 0004535  30.6524 329.4513  1.70473433 46081
GSAT0209 (PRN E09)      
1 41174U 15079A   23034.56069252 -.00000026  00000+0  00000+0 0  9993
2 41174  55.2259 135.0487 0002923 303.1617  56.8003  1.70474969 43817
GSAT0208 (PRN E08)      
1 41175U 15079B   23034.78022467 -.00000025  00000+0  00000+0 0  9994
2 41175  55.2243 135.0411 0002180 303.8498  56.1207  1.70474860 44233
GSAT0211 (PRN E02)      
1 41549U 16030A   23034.90052108  .00000059  00000+0  00000+0 0  9992
2 41549  55.6244 255.5208 0004488   1.7537 358.3253  1.70473444 41711
GSAT0210 (PRN E01)      
1 41550U 16030B   23034.01908391  .00000058  00000+0  00000+0 0  9999
2 41550  55.6256 255.5463 0002548 345.4852  14.5852  1.70474988 41699
GSAT0207 (PRN E07)      
1 41859U 16069A   23034.26811781 -.00000028  00000+0  00000+0 0  9994
2 41859  54.8870 135.1810 0003205 283.9697  75.9826  1.70474897 38650
GSAT0212 (PRN E03)      
1 41860U 16069B   23033.53559499 -.00000031  00000+0  00000+0 0  9994
2 41860  54.8845 135.1986 0001623 318.7106  41.2619  1.70473628 38671
GSAT0213 (PRN E04)      
1 41861U 16069C   23035.07399225 -.00000023  00000+0  00000+0 0  9996
2 41861  54.8874 135.1616 0003190 254.3540 105.6033  1.70473759 38560
GSAT0214 (PRN E05)      
1 41862U 16069D   23031.70163268 -.00000035  00000+0  00000+0 0  9992
2 41862  54.8848 135.2494 0002434 253.7343 106.2206  1.70473741 38639
GSAT0215 (PRN E21)      
1 43055U 17079A   23031.01863576  .00000049  00000+0  00000+0 0  9997
2 43055  55.6039 255.4570 0002010 344.4561  15.6077  1.70474071 31961
GSAT0216 (PRN E25)      
1 43056U 17079B   23033.07047961  .00000056  00000+0  00000+0 0  9996
2 43056  55.6027 255.4001 0003032 324.8524  35.2041  1.70474135 31986
GSAT0217 (PRN E27)      
1 43057U 17079C   23033.87735973  .00000058  00000+0  00000+0 0  9994
2 43057  55.6005 255.3774 0003536 340.9601  19.1042  1.70474158 32015
GSAT0218 (PRN E31)      
1 43058U 17079D   23035.27054429  .00000059  00000+0  00000+0 0  9992
2 43058  55.5999 255.3361 0003189 311.4388  48.6103  1.70474206 32062
GSAT0221 (PRN E15)      
1 43564U 18060A   23034.58237765 -.00000081  00000+0  00000+0 0  9990
2 43564  57.2447  14.9356 0005570 288.8290  71.1056  1.70475818 28208
GSAT0222 (PRN E33)      
1 43565U 18060B   23034.80225816 -.00000080  00000+0  00000+0 0  9999
2 43565  57.2465  14.9306 0005249 294.9906  64.9495  1.70475785 28254
GSAT0219 (PRN E36)      
1 43566U 18060C   23033.84962325 -.00000082  00000+0  00000+0 0  9998
2 43566  57.2472  14.9581 0004948 296.3338  63.6118  1.70475782 28219
GSAT0220 (PRN E13)      
1 43567U 18060D   23034.06991912 -.00000082  00000+0  00000+0 0  9998
2 43567  57.2471  14.9524 0005141 291.3607  68.5804  1.70475897 28208
GSAT0223                
1 49809U 21116A   23034.21596755 -.00000081  00000+0  00000+0 0  9991
2 49809  57.2420  14.8455 0002467 257.8983 281.8439  1.70476052  7217
GSAT0224                
1 49810U 21116B   23035.20049135 -.00000079  00000+0  00000+0 0  9995
2 49810  57.2381  14.8173 0001986 271.7898 264.6511  1.70476037  7254
